[{"OBJECT_NAME":"STARLINK-33961","OBJECT_ID":"2025-102AB","EPOCH":"2026-03-09T12:04:41.060064","MEAN_MOTION":14.98362597,"ECCENTRICITY":0.00027971,"INCLINATION":70.0017,"RA_OF_ASC_NODE":114.9515,"ARG_OF_PERICENTER":251.6237,"MEAN_ANOMALY":108.4618,"EPHEMERIS_TYPE":0,"CLASSIFICATION_TYPE":"U","NORAD_CAT_ID":64047,"ELEMENT_SET_NO":999,"REV_AT_EPOCH":4580,"BSTAR":-0.0019274743,"MEAN_MOTION_DOT":-0.00023035,"MEAN_MOTION_DDOT":0},{"OBJECT_NAME":"CZ-6A DEB","OBJECT_ID":"2024-140KN","EPOCH":"2026-03-09T13:37:52.587264","MEAN_MOTION":14.78327521,"ECCENTRICITY":0.01349,"INCLINATION":88.7947,"RA_OF_ASC_NODE":265.1899,"ARG_OF_PERICENTER":188.1767,"MEAN_ANOMALY":171.726,"EPHEMERIS_TYPE":0,"CLASSIFICATION_TYPE":"U","NORAD_CAT_ID":60883,"ELEMENT_SET_NO":999,"REV_AT_EPOCH":8325,"BSTAR":0.00065033,"MEAN_MOTION_DOT":5.532e-5,"MEAN_MOTION_DDOT":0}]
